STARLINK-2153           
1 48009U 21024AJ  25069.49637866  .00018079  00000+0  12304-2 0  9997
2 48009  53.0526 151.5454 0001340 110.4043 249.7090 15.06372947219423
STARLINK-2226           
1 48010U 21024AK  25069.24389640 -.00002335  00000+0 -13799-3 0  9996
2 48010  53.0526 172.6756 0001364 105.6443 254.4696 15.06373641219102
STARLINK-2283           
1 48014U 21024AP  25069.58335648  .01074329  00000+0  19661-1 0  9999
2 48014  53.0521  95.5678 0001254  76.6370  59.8041 15.46345016220204
STARLINK-2284           
1 48016U 21024AR  25068.91668981  .00103630  00000+0  16280-2 0  9998
2 48016  53.0416  62.0786 0006992 341.3762 128.6572 15.52826765  5970
STARLINK-2282           
1 48018U 21024AT  25069.41969057  .00046871  00000+0  16239-2 0  9991
2 48018  53.0347 141.9752 0005922 314.6992  45.3524 15.29389731219559
STARLINK-2285           
1 48019U 21024AU  25069.47287370  .00011904  00000+0  81739-3 0  9996
2 48019  53.0537 146.6529 0001388  73.0089 287.1052 15.06368606219498
STARLINK-2301           
1 48021U 21024AW  25069.39453094 -.00000142  00000+0  93748-5 0  9996
2 48021  53.0537 106.9935 0001787  95.2155 264.9037 15.06389614220045
STARLINK-2298           
1 48022U 21024AX  25069.48950558  .00000523  00000+0  54052-4 0  9990
2 48022  53.0530 166.8566 0001409  95.7484 264.3666 15.06375411219203
STARLINK-2292           
1 48023U 21024AY  25069.54476178 -.00001599  00000+0 -88534-4 0  9997
2 48023  53.0524 166.3243 0001439  90.6314 269.4840 15.06380041219219
STARLINK-2264           
1 48028U 21024BD  25069.25002315  .00905451  00000+0  26173-1 0  9994
2 48028  53.0578 100.2235 0001279  71.8597 202.0317 15.32794814220116
STARLINK-2299           
1 48029U 21024BE  25069.52264788  .00018117  00000+0  12322-2 0  9995
2 48029  53.0525 166.4282 0001163 101.1183 258.9937 15.06393709219211
STARLINK-2286           
1 48033U 21024BJ  25068.91668981  .00741062  00000+0  74766-2 0  9997
2 48033  53.0485 163.1992 0001117  64.5254  97.8064 15.62431237  5780
STARLINK-2288           
1 48034U 21024BK  25068.91668981  .00572043  00000+0  14179-1 0  9990
2 48034  53.0508 165.9093 0001084  63.4199  72.4018 15.37566510  5848
STARLINK-2295           
1 48036U 21024BM  25069.58335648  .00415800  00000+0  26665-2 0  9998
2 48036  53.0502 130.3405 0001973  62.6981  45.0783 15.74524158219726
STARLINK-2404           
1 48093U 21027B   25069.10706830 -.00001000  00000+0 -48245-4 0  9992
2 48093  53.0565 358.4988 0002003 101.1734 258.9480 15.06393517217205
STARLINK-2412           
1 48094U 21027C   25069.19089300  .00018320  00000+0  12461-2 0  9998
2 48094  53.0552   7.9165 0001465  85.9252 274.1905 15.06383584217081
STARLINK-2414           
1 48095U 21027D   25069.19826880  .00009135  00000+0  63146-3 0  9992
2 48095  53.0562   7.8838 0001739  98.2933 261.8254 15.06394829217080
STARLINK-2417           
1 48096U 21027E   25069.03977163 -.00001649  00000+0 -91832-4 0  9995
2 48096  53.0577   8.5911 0002113 121.1482 238.9715 15.06400897217056
STARLINK-2418           
1 48097U 21027F   25069.21854163  .00023854  00000+0  16159-2 0  9997
2 48097  53.0546 347.7925 0001231  89.6210 270.4920 15.06376609217369
STARLINK-2421           
1 48098U 21027G   25069.19550136  .00024068  00000+0  16291-2 0  9993
2 48098  53.0552 357.8945 0001678  96.9321 263.1859 15.06401014217279
STARLINK-2428           
1 48099U 21027H   25068.85178376  .00003513  00000+0  25459-3 0  9997
2 48099  53.0559   9.4401 0001177  78.5557 281.5564 15.06405874217023
STARLINK-2430           
1 48100U 21027J   25069.14483285  .00006495  00000+0  45440-3 0  9995
2 48100  53.0556 348.1250 0001427  94.4983 265.6169 15.06409938217351
STARLINK-2436           
1 48101U 21027K   25069.21395151 -.00001193  00000+0 -61234-4 0  9990
2 48101  53.0552 358.0137 0001389  98.1557 261.9590 15.06397190217226
STARLINK-2437           
1 48102U 21027L   25069.03793194  .00007677  00000+0  53363-3 0  9994
2 48102  53.0550 348.6014 0001485  73.3656 286.7496 15.06407630217339
STARLINK-2439           
1 48104U 21027N   25069.12408561  .00003460  00000+0  25103-3 0  9994
2 48104  53.0552 353.2116 0001236 103.5917 256.5210 15.06403153217287
STARLINK-2440           
1 48105U 21027P   25068.89880379  .00012268  00000+0  84073-3 0  9996
2 48105  53.0551 299.2247 0001569  93.1363 266.9806 15.06413336218011
STARLINK-2442           
1 48106U 21027Q   25069.14850951  .00010964  00000+0  75366-3 0  9995
2 48106  53.0555 348.1162 0001472  87.7714 272.3443 15.06406629217359
STARLINK-2443           
1 48107U 21027R   25069.16325731  .00025292  00000+0  17106-2 0  9998
2 48107  53.0550 348.0405 0001342  72.3936 287.7199 15.06403851217358
STARLINK-2447           
1 48110U 21027U   25069.58335648  .00412115  00000+0  16261-2 0  9991
2 48110  53.0490 333.5791 0002657 196.5839  72.9888 15.85209855217593
STARLINK-2448           
1 48111U 21027V   25069.11808890  .00025459  00000+0  17221-2 0  9993
2 48111  53.0576 358.2118 0001521  83.6767 276.4395 15.06395333217214
STARLINK-2449           
1 48112U 21027W   25068.84581979 -.00002385  00000+0 -14129-3 0  9999
2 48112  53.0570  14.6286 0001100  82.2177 277.8936 15.06402920216958
STARLINK-2450           
1 48113U 21027X   25069.11349150  .00019133  00000+0  13000-2 0  9997
2 48113  53.0566   8.2647 0001233  93.3767 266.7363 15.06395729217061
STARLINK-2452           
1 48115U 21027Z   25068.83796160  .00002573  00000+0  19150-3 0  9997
2 48115  53.0552 359.5101 0001453  91.0116 269.1039 15.06410783217562
STARLINK-2454           
1 48116U 21027AA  25069.24249995  .00006100  00000+0  42803-3 0  9994
2 48116  53.0559   7.6840 0001320  83.4884 276.6255 15.06403927217083
STARLINK-2455           
1 48117U 21027AB  25069.21390650  .00011478  00000+0  78797-3 0  9992
2 48117  53.0557 347.8023 0001405  81.5117 278.6031 15.06409235217369
STARLINK-2459           
1 48119U 21027AD  25069.08860071  .00020745  00000+0  14070-2 0  9998
2 48119  53.0547 348.3671 0000965  83.1557 276.9542 15.06412474217346
STARLINK-2460           
1 48120U 21027AE  25069.09506602  .00000774  00000+0  70866-4 0  9995
2 48120  53.0572   8.3456 0001803  96.1643 263.9551 15.06402763217067
STARLINK-2462           
1 48121U 21027AF  25069.06649324  .00021401  00000+0  14511-2 0  9995
2 48121  53.0557 358.4722 0001593  94.5176 265.5995 15.06404825217202
STARLINK-2464           
1 48123U 21027AH  25068.94209090 -.00001861  00000+0 -10609-3 0  9990
2 48123  53.0558 349.0346 0001480  97.6181 262.4976 15.06395008217722
STARLINK-2465           
1 48124U 21027AJ  25069.20655952  .00024670  00000+0  16696-2 0  9995
2 48124  53.0554 357.8435 0001590  87.0619 273.0552 15.06392405217227
STARLINK-2466           
1 48125U 21027AK  25069.22041094  .00018319  00000+0  12455-2 0  9996
2 48125  53.0554   8.0260 0001405  98.2269 261.8879 15.06399781217084
STARLINK-2467           
1 48126U 21027AL  25069.04161396  .00013897  00000+0  95006-3 0  9995
2 48126  53.0569 348.5781 0001833 117.4806 242.6369 15.06398454217332
STARLINK-2468           
1 48127U 21027AM  25069.09874848  .00010987  00000+0  75510-3 0  9999
2 48127  53.0552   8.3261 0001574 116.9575 243.1575 15.06412927217065
STARLINK-2469           
1 48128U 21027AN  25068.88037496  .00003603  00000+0  26068-3 0  9997
2 48128  53.0531 299.3999 0001215  82.8706 277.2421 15.06399596218405
STARLINK-2471           
1 48129U 21027AP  25069.09138069  .00005825  00000+0  40953-3 0  9997
2 48129  53.0571   8.3560 0001889 112.3874 247.7315 15.06406161217066
STARLINK-2472           
1 48130U 21027AQ  25068.86798234  .00004652  00000+0  33094-3 0  9994
2 48130  53.0570  14.9145 0001600  98.0554 262.0617 15.06406387217352
STARLINK-2473           
1 48131U 21027AR  25069.16693204  .00023358  00000+0  15803-2 0  9991
2 48131  53.0547 348.0176 0001635 104.1768 255.9403 15.06436027217354
STARLINK-2474           
1 48132U 21027AS  25069.14666552  .00018385  00000+0  12498-2 0  9997
2 48132  53.0555   8.1141 0001415  96.0648 264.0502 15.06403032217072
STARLINK-2475           
1 48133U 21027AT  25069.14298011  .00016394  00000+0  11169-2 0  9991
2 48133  53.0558   8.1304 0001705  96.1612 263.9571 15.06400433217077
STARLINK-2476           
1 48134U 21027AU  25069.19457953  .00000455  00000+0  49469-4 0  9996
2 48134  53.0572   7.9042 0001569 102.8254 257.2910 15.06398551217086
STARLINK-2478           
1 48135U 21027AV  25069.12963594  .00001358  00000+0  11006-3 0  9991
2 48135  53.0564  13.3533 0001547  94.2960 265.8206 15.06402527216999
STARLINK-2479           
1 48136U 21027AW  25069.20201219  .00020666  00000+0  14026-2 0  9997
2 48136  53.0552   8.3674 0001374  92.3136 267.8010 15.06390402217072
STARLINK-2480           
1 48137U 21027AX  25069.04529656  .00000505  00000+0  52815-4 0  9998
2 48137  53.0560 348.5351 0001938 119.8876 240.2306 15.06407464217334
STARLINK-2481           
1 48138U 21027AY  25069.20564293  .00021056  00000+0  14284-2 0  9993
2 48138  53.0549   7.8490 0001430  81.3468 278.7683 15.06395389217086
STARLINK-2482           
1 48139U 21027AZ  25068.93103339  .00013266  00000+0  90780-3 0  9993
2 48139  53.0545 349.0772 0002181 117.7218 242.3992 15.06400460217726
STARLINK-2483           
1 48140U 21027BA  25069.21677746  .00022613  00000+0  15332-2 0  9990
2 48140  53.0546   8.3490 0001378  71.8001 288.3138 15.06373977217070
STARLINK-2485           
1 48142U 21027BC  25069.06004708  .00022594  00000+0  15309-2 0  9999
2 48142  53.0560 348.5027 0001230  82.2305 277.8823 15.06399042217348
STARLINK-2486           
1 48143U 21027BD  25068.91861570  .00006945  00000+0  48466-3 0  9994
2 48143  53.0541 304.2407 0001325  73.0737 287.0397 15.06403413218349
STARLINK-2487           
1 48144U 21027BE  25069.06741709  .00016718  00000+0  11384-2 0  9990
2 48144  53.0564 348.4729 0001343 114.1072 246.0058 15.06405127217343
